{
  "type": "FeatureCollection",
  "features": [
    {
      "type": "Feature",
      "properties": {
        "norad_id": 35061,
        "name": "COSMOS 2251 DEB",
        "group": "cosmos-2251-debris",
        "lat": 3.8789729838926457,
        "lon": 141.9875727117954,
        "alt_km": 674.7744532020388,
        "timestamp": "2025-12-03T17:47:51.114303+00:00",
        "meta_object_name": "COSMOS 2251 DEB",
        "meta_object_id": "1993-036AHQ",
        "meta_epoch": "2025-12-03T05:33:06.011712",
        "meta_mean_motion": 14.67690423,
        "meta_eccentricity": 0.0038808,
        "meta_inclination": 74.0447,
        "meta_ra_of_asc_node": 324.0838,
        "meta_arg_of_pericenter": 77.8847,
        "meta_mean_anomaly": 282.6667,
        "meta_ephemeris_type": 0,
        "meta_classification_type": "U",
        "meta_norad_cat_id": 35061,
        "meta_element_set_no": 999,
        "meta_rev_at_epoch": 88435,
        "meta_bstar": 0.0010187,
        "meta_mean_motion_dot": 5.838e-05,
        "meta_mean_motion_ddot": 0,
        "tle_line1": "1 35061U 93036AHQ 25337.23131958  .00005838  00000+0  10187-2 0  9990",
        "tle_line2": "2 35061  74.0447 324.0838 0038808  77.8847 282.6667 14.67690423884356"
      },
      "geometry": {
        "type": "Point",
        "coordinates": [
          141.9875727117954,
          3.8789729838926457
        ]
      }
    },
    {
      "type": "Feature",
      "properties": {
        "norad_id": 35062,
        "name": "COSMOS 2251 DEB",
        "group": "cosmos-2251-debris",
        "lat": -61.18226771367224,
        "lon": -39.366530066095,
        "alt_km": 886.480582510796,
        "timestamp": "2025-12-03T17:47:51.114313+00:00",
        "meta_object_name": "COSMOS 2251 DEB",
        "meta_object_id": "1993-036AHR",
        "meta_epoch": "2025-12-01T08:58:12.976320",
        "meta_mean_motion": 14.22770227,
        "meta_eccentricity": 0.01291712,
        "meta_inclination": 74.0782,
        "meta_ra_of_asc_node": 113.6209,
        "meta_arg_of_pericenter": 116.5829,
        "meta_mean_anomaly": 244.8622,
        "meta_ephemeris_type": 0,
        "meta_classification_type": "U",
        "meta_norad_cat_id": 35062,
        "meta_element_set_no": 999,
        "meta_rev_at_epoch": 85337,
        "meta_bstar": 0.0022023834,
        "meta_mean_motion_dot": 5.359e-05,
        "meta_mean_motion_ddot": 0,
        "tle_line1": "1 35062U 93036AHR 25335.37376130  .00005359  00000+0  22024-2 0  9998",
        "tle_line2": "2 35062  74.0782 113.6209 0129171 116.5829 244.8622 14.22770227853379"
      },
      "geometry": {
        "type": "Point",
        "coordinates": [
          -39.366530066095,
          -61.18226771367224
        ]
      }
    },
    {
      "type": "Feature",
      "properties": {
        "norad_id": 35065,
        "name": "COSMOS 2251 DEB",
        "group": "cosmos-2251-debris",
        "lat": -73.81954206044071,
        "lon": 130.17732887297674,
        "alt_km": 740.8213396073152,
        "timestamp": "2025-12-03T17:47:51.114324+00:00",
        "meta_object_name": "COSMOS 2251 DEB",
        "meta_object_id": "1993-036AHU",
        "meta_epoch": "2025-12-03T08:14:08.184192",
        "meta_mean_motion": 14.45682076,
        "meta_eccentricity": 0.0019528,
        "meta_inclination": 74.0203,
        "meta_ra_of_asc_node": 211.8755,
        "meta_arg_of_pericenter": 338.2549,
        "meta_mean_anomaly": 21.7777,
        "meta_ephemeris_type": 0,
        "meta_classification_type": "U",
        "meta_norad_cat_id": 35065,
        "meta_element_set_no": 999,
        "meta_rev_at_epoch": 68215,
        "meta_bstar": 0.00062183,
        "meta_mean_motion_dot": 2.179e-05,
        "meta_mean_motion_ddot": 0,
        "tle_line1": "1 35065U 93036AHU 25337.34315028  .00002179  00000+0  62183-3 0  9997",
        "tle_line2": "2 35065  74.0203 211.8755 0019528 338.2549  21.7777 14.45682076682151"
      },
      "geometry": {
        "type": "Point",
        "coordinates": [
          130.17732887297674,
          -73.81954206044071
        ]
      }
    },
    {
      "type": "Feature",
      "properties": {
        "norad_id": 35071,
        "name": "COSMOS 2251 DEB",
        "group": "cosmos-2251-debris",
        "lat": 62.37502497764941,
        "lon": -134.64469160654883,
        "alt_km": 507.2450461444523,
        "timestamp": "2025-12-03T17:47:51.114336+00:00",
        "meta_object_name": "COSMOS 2251 DEB",
        "meta_object_id": "1993-036AJA",
        "meta_epoch": "2025-12-03T07:55:04.067616",
        "meta_mean_motion": 15.03160044,
        "meta_eccentricity": 0.0068446,
        "meta_inclination": 73.9314,
        "meta_ra_of_asc_node": 192.7815,
        "meta_arg_of_pericenter": 92.1251,
        "meta_mean_anomaly": 268.7777,
        "meta_ephemeris_type": 0,
        "meta_classification_type": "U",
        "meta_norad_cat_id": 35071,
        "meta_element_set_no": 999,
        "meta_rev_at_epoch": 67395,
        "meta_bstar": 0.00089094,
        "meta_mean_motion_dot": 0.00012654,
        "meta_mean_motion_ddot": 0,
        "tle_line1": "1 35071U 93036AJA 25337.32990819  .00012654  00000+0  89094-3 0  9998",
        "tle_line2": "2 35071  73.9314 192.7815 0068446  92.1251 268.7777 15.03160044673954"
      },
      "geometry": {
        "type": "Point",
        "coordinates": [
          -134.64469160654883,
          62.37502497764941
        ]
      }
    },
    {
      "type": "Feature",
      "properties": {
        "norad_id": 35073,
        "name": "COSMOS 2251 DEB",
        "group": "cosmos-2251-debris",
        "lat": -72.843902207214,
        "lon": -79.41535961336353,
        "alt_km": 581.8416378641068,
        "timestamp": "2025-12-03T17:47:51.114347+00:00",
        "meta_object_name": "COSMOS 2251 DEB",
        "meta_object_id": "1993-036AJC",
        "meta_epoch": "2025-11-29T08:29:21.429600",
        "meta_mean_motion": 14.99364384,
        "meta_eccentricity": 0.00097336,
        "meta_inclination": 74.0024,
        "meta_ra_of_asc_node": 357.8403,
        "meta_arg_of_pericenter": 101.5288,
        "meta_mean_anomaly": 258.6992,
        "meta_ephemeris_type": 0,
        "meta_classification_type": "U",
        "meta_norad_cat_id": 35073,
        "meta_element_set_no": 999,
        "meta_rev_at_epoch": 67278,
        "meta_bstar": 0.00211185,
        "meta_mean_motion_dot": 0.00025921,
        "meta_mean_motion_ddot": 0,
        "tle_line1": "1 35073U 93036AJC 25333.35372025  .00025921  00000+0  21119-2 0  9996",
        "tle_line2": "2 35073  74.0024 357.8403 0009733 101.5288 258.6992 14.99364384672786"
      },
      "geometry": {
        "type": "Point",
        "coordinates": [
          -79.41535961336353,
          -72.843902207214
        ]
      }
    },
    {
      "type": "Feature",
      "properties": {
        "norad_id": 35280,
        "name": "COSMOS 2251 DEB",
        "group": "cosmos-2251-debris",
        "lat": -24.47014103528219,
        "lon": 75.48373884010743,
        "alt_km": 23.252166918072362,
        "timestamp": "2025-12-03T17:47:51.114359+00:00",
        "meta_object_name": "COSMOS 2251 DEB",
        "meta_object_id": "1993-036AJJ",
        "meta_epoch": "2025-11-12T05:44:02.487552",
        "meta_mean_motion": 15.48119691,
        "meta_eccentricity": 0.00063876,
        "meta_inclination": 73.9815,
        "meta_ra_of_asc_node": 131.656,
        "meta_arg_of_pericenter": 153.4254,
        "meta_mean_anomaly": 206.7286,
        "meta_ephemeris_type": 0,
        "meta_classification_type": "U",
        "meta_norad_cat_id": 35280,
        "meta_element_set_no": 999,
        "meta_rev_at_epoch": 87074,
        "meta_bstar": 0.018411483,
        "meta_mean_motion_dot": 0.01068411,
        "meta_mean_motion_ddot": 0,
        "tle_line1": "1 35280U 93036AJJ 25316.23891768  .01068411  00000+0  18411-1 0  9996",
        "tle_line2": "2 35280  73.9815 131.6560 0006387 153.4254 206.7286 15.48119691870745"
      },
      "geometry": {
        "type": "Point",
        "coordinates": [
          75.48373884010743,
          -24.47014103528219
        ]
      }
    },
    {
      "type": "Feature",
      "properties": {
        "norad_id": 35284,
        "name": "COSMOS 2251 DEB",
        "group": "cosmos-2251-debris",
        "lat": -25.303421499435803,
        "lon": 108.76339962833218,
        "alt_km": 779.752852476995,
        "timestamp": "2025-12-03T17:47:51.114370+00:00",
        "meta_object_name": "COSMOS 2251 DEB",
        "meta_object_id": "1993-036AJN",
        "meta_epoch": "2025-12-01T13:38:31.155360",
        "meta_mean_motion": 14.382963,
        "meta_eccentricity": 0.00163281,
        "meta_inclination": 74.049,
        "meta_ra_of_asc_node": 284.9919,
        "meta_arg_of_pericenter": 3.7139,
        "meta_mean_anomaly": 114.9177,
        "meta_ephemeris_type": 0,
        "meta_classification_type": "U",
        "meta_norad_cat_id": 35284,
        "meta_element_set_no": 999,
        "meta_rev_at_epoch": 65365,
        "meta_bstar": 0.00020439824,
        "meta_mean_motion_dot": 5.97e-06,
        "meta_mean_motion_ddot": 0,
        "tle_line1": "1 35284U 93036AJN 25335.56841615  .00000597  00000+0  20440-3 0  9990",
        "tle_line2": "2 35284  74.0490 284.9919 0016328   3.7139 114.9177 14.38296300653654"
      },
      "geometry": {
        "type": "Point",
        "coordinates": [
          108.76339962833218,
          -25.303421499435803
        ]
      }
    }
  ]
}